name,address,province,city,area,telephone,tag
乐锐硬笔书法(健生路店),广东省广州市增城区健生路50号,广东省,广州市,增城区,,教育培训;培训机构
名瑜书法(东晓南店),广东省广州市海珠区东晓南路1319号,广东省,广州市,海珠区,18933900747,教育培训;培训机构
大智森林托管书法,广东省广州市天河区前进街道中山大道路1104号二楼A2001-2011号,广东省,广州市,天河区,(020)32201982,教育培训;培训机构
辉师书法教育(东方文德广场店),广东省广州市越秀区文德北路68号东方文德广场4楼A421号,广东省,广州市,越秀区,"(020)83526863,15622361785",教育培训;培训机构
秦汉胡同书法围棋国画古筝书院(江南西分馆),广东省广州市海珠区江南西路113号中国石油南方大厦四楼,广东省,广州市,海珠区,,教育培训;培训机构
斑马美术书法培训中心,广州市白云区西苑路保利紫云,广东省,广州市,白云区,,教育培训;培训机构
广州市白云区书法家协会,广东省广州市白云区黄边北路105号四楼,广东省,广州市,白云区,,政府机构;党派团体
三正书法苑,广东省广州市增城区荔景大道北145号,广东省,广州市,增城区,16624770529,教育培训;培训机构
四恒堂书法工作室,广东省广州市越秀区德安路3号,广东省,广州市,越秀区,18928969263,教育培训;培训机构
茁成堂书法,广东省广州市天河区棠下街道棠东东路128号113商铺(3度7牛奶隔壁),广东省,广州市,天河区,15627032535,教育培训;培训机构
金峰书法,广州市黄埔区广州绕城高速保利·罗兰国际,广东省,广州市,黄埔区,,教育培训;培训机构
静到书法,广东省广州市南沙区进港大道真格教育城二楼221室,广东省,广州市,南沙区,19128649982,教育培训;培训机构
趣学书法(桂花岗校区),广州市白云区政民路19号305房,广东省,广州市,白云区,19966259875,教育培训;培训机构
老杨书法工作室,广东省广州市天河区信成北街6号,广东省,广州市,天河区,18002291475,教育培训;培训机构
名墨书法,广东省广州市海珠区革新路新民五街48号,广东省,广州市,海珠区,,教育培训;培训机构
古一书法,广州市黄埔区大沙北路大沙东公租房,广东省,广州市,黄埔区,,教育培训;培训机构
文德路字画街,广州市越秀区文德路，北起中山四路，南至文德南路。,广东省,广州市,越秀区,,购物;其他
用心书法工作室,广州市增城区富强路富强物业小区西南侧约70米,广东省,广州市,增城区,,教育培训;培训机构
悦章书法,广州市番禺区福愉西路雅居乐城南源著,广东省,广州市,番禺区,,教育培训;培训机构
静到书法(上渡路校区),广东省广州市海珠区上渡路165号,广东省,广州市,海珠区,13711741131,教育培训;培训机构
中国书法专业培训,广东省广州市天河区长湴禾串树大街与长湴禾串树直街交叉口东北方向50米,广东省,广州市,天河区,,教育培训;培训机构
秦汉胡同围棋书法国画书院(滨江东路馆),广东省广州市海珠区滨江东路185号金海湾广场1楼01房,广东省,广州市,海珠区,,教育培训;培训机构
羽墨轩书法教育,广东省广州市番禺区3街24号,广东省,广州市,番禺区,18898434661,教育培训;培训机构
晓墨轩专业书法培训(市桥店),广东省广州市番禺区康乐路13号,广东省,广州市,番禺区,13672499261,教育培训;培训机构
宋爱明书法工作室,广东省广州市黄埔区洪福市直街8号,广东省,广州市,黄埔区,15360662749,教育培训;培训机构
贺小亮书法工作室,广州市黄埔区丰乐中路丰乐小区,广东省,广州市,黄埔区,,教育培训;培训机构
德艺轩美术书法,广州市天河区黄村路天雅居,广东省,广州市,天河区,,教育培训;培训机构
广东省粤海书画院,广东省广州市白云区贵贤路18号,广东省,广州市,白云区,,教育培训;培训机构
品墨轩书法教育,广东省广州市天河区华景路117号,广东省,广州市,天河区,13660557218,教育培训;培训机构
乐成书法教育,广东省广州市荔湾区河沙路138号珠岛花园13栋5号,广东省,广州市,荔湾区,13640332078,教育培训;培训机构
金峰书法(星汇金沙校区),广州市白云区汇瑞街越秀星汇金沙,广东省,广州市,白云区,18688445401,教育培训;培训机构
笔韵书法教育(天河总店),广东省广州市天河区龙怡路91号(广星体育前面),广东省,广州市,天河区,13719115660,教育培训;培训机构
画萌美术书法,广东省广州市增城区中福南路4号,广东省,广州市,增城区,13888008933,教育培训;培训机构
燕前堂字画(京溪店),京溪广州大道北天州家居城A区F1-B档,广东省,广州市,白云区,18819360088,购物;其他
顾文学书法工作室,广东省广州市番禺区大石街道富石路299号三楼,广东省,广州市,番禺区,,教育培训;培训机构
广州乐锐硬笔书法,广东省广州市增城区荔城大道306-31号,广东省,广州市,增城区,18529184999,教育培训;培训机构
书法绘画,广州市从化区教育路聚和苑,广东省,广州市,从化区,,教育培训;培训机构
顾文学书法工作室,广东省广州市番禺区钟韦路9号2楼,广东省,广州市,番禺区,18819815665,教育培训;培训机构
知行书法教育,广州市番禺区横江环校大街横江民生小学东北侧,广东省,广州市,番禺区,,教育培训;培训机构
书法学堂,广州市海珠区盈中路英豪花园,广东省,广州市,海珠区,,教育培训;培训机构
乐锐硬笔书法(花都分校),广东省广州市花都区大华二路23-23号,广东省,广州市,花都区,15521067666,教育培训;培训机构
韶华书法,广州市白云区同嘉路99号格创e空间二楼220室,广东省,广州市,白云区,13802979674,教育培训;培训机构
一笔书法,广东省广州市番禺区沙湾路128号金沙丽水,广东省,广州市,番禺区,18565459335,教育培训;培训机构
广州书画专修学院,广东省广州市海珠区素社街道建基路68号广州市图批创新中心三楼,广东省,广州市,海珠区,"(020)84228957,(020)84269378",教育培训;高等院校
北格霖院书法艺考,广东省广州市南沙区黄阁镇黄阁大道,广东省,广州市,南沙区,13421848461,教育培训;培训机构
兰亭书法,广州市花都区兰花路保利花城,广东省,广州市,花都区,13682215894,教育培训;培训机构
晓墨轩书法学堂,广州市番禺区东沙路东沙别墅西北侧,广东省,广州市,番禺区,18928761033,教育培训;培训机构
篆山书院,广东省广州市白云区云景路93号112铺（培英实验学校旁）,广东省,广州市,白云区,18022878909,教育培训
书法文化,广州市南沙区中环路横沥镇人民政府北侧约60米,广东省,广州市,南沙区,,教育培训;培训机构
宋书法石刻,广州市番禺区沙湾镇紫坭村村南路宝墨园,广东省,广州市,番禺区,,旅游景点;文物古迹
方圆四点书法,广州市白云区乐鸣一街乐得花园-二期,广东省,广州市,白云区,,教育培训;培训机构
阮钊书法工作室,广东省广州市越秀区东山街道寺右南一街三巷7号,广东省,广州市,越秀区,,教育培训;培训机构
黄定荣学生实用书法,广东省广州市花都区叶榕街5号之二十二,广东省,广州市,花都区,15999969119,教育培训
子修书法(增城凤晴分校),广东省广州市增城区6街42号,广东省,广州市,增城区,13560044462,教育培训;培训机构
文洼书画院装裱工作室,广州市南沙区创业大街中盈·领海台北侧约80米,广东省,广州市,南沙区,"13580581828,13925132088",购物
顾文学书法工作室,广东省广州市番禺区石壁街道屏二东街屏二幼儿园旁,广东省,广州市,番禺区,,教育培训;培训机构
易文敏书法工作室,广东省广州市南沙区振兴路34号,广东省,广州市,南沙区,13682222896,教育培训;培训机构
金麦田美术书法教育,广东省广州市黄埔区怡园街33号,广东省,广州市,黄埔区,13928863157,教育培训;培训机构
宋福书法(番禺石碁校区),广东省广州市番禺区富怡路17号,广东省,广州市,番禺区,19925674952,教育培训;培训机构
挥然书法培训中心,广东省广州市荔湾区东塱大街小区,广东省,广州市,荔湾区,13760841720,教育培训;培训机构
千寻创意美术&书法,广东广州市番禺区商业街万科欧泊2楼,广东省,广州市,番禺区,18122106841,教育培训;培训机构
书法美术,广州市番禺区海鸥公路海鸥岛,广东省,广州市,番禺区,,教育培训;培训机构
托管书法培训,广州市南沙区教育路万顷沙小学东侧约50米,广东省,广州市,南沙区,,教育培训;培训机构
金峰书法,广东省番禺区福翠路奥园小资天堂1座2楼,广东省,广州市,番禺区,,教育培训;培训机构
淘金书法,彩滨北路保利西海岸汇海花园九栋1604室,广东省,广州市,白云区,18902244661,教育培训;培训机构
广东楹联书画院,广东省广州市荔湾区西湾东路5号阳江大厦2楼,广东省,广州市,荔湾区,,教育培训;培训机构
南沙街道书法美术协会,广东省广州市海珠区沥滘东街13号,广东省,广州市,海珠区,,政府机构;社会团体
装裱书法国画,广州市增城区新新大道中崇和花园,广东省,广州市,增城区,,教育培训;培训机构
晋逸堂书画工作室,广东省广州市黄埔区联和街天鹿花园北区三街4号104,广东省,广州市,黄埔区,13533009135,教育培训;培训机构
承君阁书法教育,广州市海珠区艺洲路珠江帝景,广东省,广州市,海珠区,,教育培训;培训机构
林秋宏书法工作室,广东广州市番禺区市良路9号奥林匹克花园20~24号铺,广东省,广州市,番禺区,13610014279,教育培训;培训机构
大正书法,广东省广州市番禺区南城路588号,广东省,广州市,番禺区,15013141272,教育培训;培训机构
和书法,广州市天河区旭景街116号,广东省,广州市,天河区,,政府机构;党派团体
弘一书法,广州市花都区新华街秀全大道51-7一楼二楼,广东省,广州市,花都区,"13922269092,17324038378",教育培训;培训机构
艺森美术,广东省广州市越秀区惠吉东路37号首层,广东省,广州市,越秀区,13826149272,教育培训;培训机构
智慧少年宫,广东省广州市天河区水荫路118号木棉花幼儿园5层,广东省,广州市,天河区,(020)36163083,教育培训;培训机构
当代书法群芳馆,广东省广州市番禺区西安路7号,广东省,广州市,番禺区,,文化传媒;展览馆
习字书屋墨林书法,工业大道北21号汇创商务中心,广东省,广州市,海珠区,13560058537,购物;商铺
万方字画一条街,广东省广州市越秀区中山四路333号,广东省,广州市,越秀区,(020)83789888,购物
