name,address,province,city,area,telephone,tag
知书书法学院(前山校区),广东省珠海市香洲区梅花路77号梅花豪庭东南2门旁,广东省,珠海市,香洲区,13726257094,教育培训;培训机构
夏加儿美术教育(基地珠海校区),广东省珠海市香洲区上华路2号中珠九悦商业中心2楼2015室,广东省,珠海市,香洲区,,教育培训;培训机构
珠江书画院,珠海市香洲区联安路颐清园,广东省,珠海市,香洲区,13570621995,教育培训;培训机构
笔悠书法,广东省珠海市斗门区井岸镇珠峰大道1399号作品一号商业街二栋137号商铺,广东省,珠海市,斗门区,13672719974,教育培训;培训机构
壹诺壹国学书法,广东省珠海市香洲区康泰街11号,广东省,珠海市,香洲区,13928085150,教育培训;培训机构
艺通书画培训中心,广东省珠海市香洲区财源道步行街579号,广东省,珠海市,香洲区,13727068109,教育培训;培训机构
毓秀阁书画艺术中心,广东省珠海市金湾区金铭路383号,广东省,珠海市,金湾区,,教育培训;培训机构
德学书法工作室,珠海市香洲区翠峰路与翠前北路交叉路口往东约150米(杏花苑),广东省,珠海市,香洲区,13326651721,教育培训;培训机构
龙阁书画教育(新香洲校区),广东省珠海市香洲区健民路91号26商铺,广东省,珠海市,香洲区,13543084446,教育培训;培训机构
书法钢琴,珠海市香洲区广生路宝庆府大酒店东北侧约40米,广东省,珠海市,香洲区,,教育培训;培训机构
高地美术(新香洲校区),广东省珠海市香洲区三台石路221号中珠上城1楼商铺,广东省,珠海市,香洲区,"(0756)8876168,13318969109",教育培训;培训机构
知书书法学院(侨光校区),广东省珠海市香洲区拱北街道港昌路111号中铁大厦一楼,广东省,珠海市,香洲区,15013307535,教育培训;培训机构
一品教育习字书法,广东省珠海市香洲区美晟横街109铺1楼(十中后门),广东省,珠海市,香洲区,(0756)8613800,教育培训;培训机构
珠海市香洲区硬笔书法协会,珠海市香洲区南福路云顶澜山,广东省,珠海市,香洲区,,政府机构;社会团体
恋字格练好字(香山分校),广东省珠海市香洲区书香路27号五洲花城二期,广东省,珠海市,香洲区,13425060160,教育培训;培训机构
珠海汉墨书法(总校区),广东省珠海市香洲区明珠南路2007号美和文创公社2楼201号,广东省,珠海市,香洲区,13680361705,教育培训;培训机构
蒙以养正书法课堂,广东省珠海市香洲区昌业路57号,广东省,珠海市,香洲区,13727019193,教育培训;培训机构
七度书法工作室,珠海市斗门区区间路千禧楼西侧约90米,广东省,珠海市,斗门区,13168657574,教育培训;培训机构
珠海市书法家协会(教育路),珠海市香洲区福寿街建委小区东北侧,广东省,珠海市,香洲区,,政府机构;社会团体
珠海市书法家协会,广东省珠海市香洲区唐家湾镇港湾大道珠海市人大书画院,广东省,珠海市,香洲区,,政府机构;社会团体
珠海市岭南书画院,珠海市香洲区港湾大道银泉阁,广东省,珠海市,香洲区,,教育培训
国韵古筝书法,广东省珠海市香洲区同华路37号商铺,广东省,珠海市,香洲区,13702311853,教育培训;培训机构
南岳书画,广东省珠海市香洲区康泰路21号,广东省,珠海市,香洲区,,教育培训;培训机构
美术书法,珠海市香洲区扣扉路TOD万科城,广东省,珠海市,香洲区,,教育培训;培训机构
墨趣园书画教育,广东省珠海市香洲区财源道625号,广东省,珠海市,香洲区,13676069808,教育培训;培训机构
珠海逸轩小筑书画艺术馆,广东省珠海市香洲区翠仙街19号正方商业广场2楼,广东省,珠海市,香洲区,,教育培训;培训机构
南岳视觉书画培训,广东省珠海市香洲区红山路163号体育中心里面一号馆北侧,广东省,珠海市,香洲区,,教育培训;培训机构
QINCHAO乐器舞蹈书画(万和店),珠海市香洲区南虹二街泰然小区,广东省,珠海市,香洲区,(0756)2619028,教育培训;培训机构
珠海禾草堂书画艺术工作室,珠海市香洲区前山豪景花园16栋104室,广东省,珠海市,香洲区,,教育培训;培训机构
楚陵轩钟思中书法,广东珠海市香洲区白莲路16号3楼,广东省,珠海市,香洲区,"13411392615,13709688946",教育培训;培训机构
方圆四点书法教育,珠海市香洲区如意街国子间西侧,广东省,珠海市,香洲区,,教育培训;培训机构
松林书法社,广东省珠海市香洲区岱山路231号,广东省,珠海市,香洲区,15018331016,教育培训;培训机构
文心书法,珠海市香洲区吉祥街吉祥苑小区西侧,广东省,珠海市,香洲区,13160672601,教育培训;培训机构
墨园书法教育,广东省珠海市香洲区富柠街第十小学东北侧约40米,广东省,珠海市,香洲区,18928099100,教育培训;培训机构
两岸四地华夏文化促进会-书画艺术交流中心,广东省珠海市香洲区沿河东路29号碧涛大厦2楼,广东省,珠海市,香洲区,,政府机构;社会团体
珠海高栏港经济区书画协会,珠海市金湾区平沙一路怡泰家园西北侧约60米,广东省,珠海市,金湾区,,政府机构;社会团体
艺塑空间美学美育书法,广东省珠海市金湾区白藤二路西85号左邻右居3栋,广东省,珠海市,金湾区,,教育培训;培训机构
珠海市香洲区硬笔书法协会,珠海市香洲区富柠街金溪花园,广东省,珠海市,香洲区,,政府机构;社会团体
珠海市硬笔书法协会,广东省珠海市香洲区金山二巷12号,广东省,珠海市,香洲区,,政府机构;社会团体
珠海市书法家协会联络站,广东省珠海市香洲区教育路38号,广东省,珠海市,香洲区,,政府机构;社会团体
珠海市书法家协会(翠香路),珠海市香洲区翠香路碧涛花园南侧约40米,广东省,珠海市,香洲区,,政府机构;社会团体
仁艺花书画装裱店,广东省珠海市香洲区前山南路2021号泰峰文博古玩城1楼9号店,广东省,珠海市,香洲区,"15218260480,15919190415",生活服务
珠海市斗门区美术书法协会,珠海市斗门区港霞西路49号,广东省,珠海市,斗门区,,政府机构;社会团体
宽堂书画,景山路105号新天地大厦3层,广东省,珠海市,香洲区,,
点墨书画院,广东省珠海市香洲区创业路123号,广东省,珠海市,香洲区,,教育培训;培训机构
高地美术(南屏校区),广东省珠海市香洲区仙桥路南湾国际商业街2楼243~244号(禧贵人旁),广东省,珠海市,香洲区,13318969109,教育培训;培训机构
珠海市时代书画院,珠海市香洲区情侣南路九洲花园南侧,广东省,珠海市,香洲区,,
高地美术(凤凰北校区),广东省珠海市香洲区凤凰北路1098,广东省,珠海市,香洲区,(0756)2126168,教育培训;培训机构
童学书院,珠海市斗门区环东南路乾东幼儿园东北侧约210米,广东省,珠海市,斗门区,13727042883,教育培训;培训机构
童绘书画,广东省珠海市香洲区南福路125号,广东省,珠海市,香洲区,18675620691,教育培训;培训机构
翰墨缘学生服务部,广东省珠海市斗门区港霞西路394号,广东省,珠海市,斗门区,,教育培训;培训机构
启元格练字,珠海市金湾区华兴路世纪名城-1期,广东省,珠海市,金湾区,13536571887,教育培训;培训机构
中宫格5天练好字,广东省珠海市香洲区石花西路203号4楼411室,广东省,珠海市,香洲区,17676467389,教育培训;培训机构
皇家艺术,广东省珠海市金湾区依云路保利香槟国际54号铺,广东省,珠海市,金湾区,17666006888,教育培训;培训机构
童年译赞,广东省珠海市香洲区翠福路63号,广东省,珠海市,香洲区,13427796811,教育培训
岭南书画棋培育,珠海市斗门区红兴路斗门坭湾水果批发市场西南侧约90米,广东省,珠海市,斗门区,13727898838,教育培训;培训机构
吴老师书画工作室,珠海市金湾区伟民路实发新村,广东省,珠海市,金湾区,15015931366,教育培训;培训机构
优之帮托管中心,广东省珠海市金湾区梅花路21号,广东省,珠海市,金湾区,15976976139,教育培训;培训机构
