name,address,province,city,area,telephone,tag
艺轩琴行,广东省珠海市香洲区下栅正一街16号,广东省,珠海市,香洲区,13823006697,购物;商铺
琴朝乐器(香洲柠溪店),广东省珠海市香洲区柠溪路551号(南香里巴士站旁),广东省,珠海市,香洲区,(0756)2285080,购物;商铺
琴友乐器行,广东省珠海市金湾区南翔路旗景中央园180号,广东省,珠海市,金湾区,13016322966,购物;商铺
爱儿兰琴行旗舰店,香洲区情侣北路保利西海岸商铺2012-2014号,广东省,珠海市,香洲区,15992628008,购物;商铺
爱练琴行(创业路店),广东省珠海市香洲区创业路109号,广东省,珠海市,香洲区,13612221286,购物;商铺
耶西琴行Jesse Music,广东省珠海市斗门区10巷5号,广东省,珠海市,斗门区,13527277309,购物;商铺
春之梦琴行(岱山路店),前山岱山路293号,广东省,珠海市,香洲区,(0756)8626918,购物;商铺
艺馨琴行(雄昌花园店),江湾中路雄昌花园7号楼首层13号铺,广东省,珠海市,斗门区,(0756)5111678,购物;商铺
卓乐琴行(石花东路店),石花东路59号海湾花园东苑,广东省,珠海市,香洲区,,购物;商铺
星海琴行,拱北街道联安路172号,广东省,珠海市,香洲区,"(0756)8281328,(0756)8812328",购物;商铺
明高琴行,夏湾华宁花园22栋首层,广东省,珠海市,香洲区,18928082500,购物;商铺
新海贝琴行(香洲旗舰店),广东省珠海市香洲区柠溪路101号铺,广东省,珠海市,香洲区,"(0756)2292368,13902874373",购物;商铺
五感琴行,广东省珠海市香洲区红宝路53号,广东省,珠海市,香洲区,18688175454,购物;商铺
诗韵琴行,广东省珠海市金湾区依云路保利香槟国际花园10号商铺,广东省,珠海市,金湾区,13427795468,购物;商铺
晓斌琴行(凤凰北路店),如意街205商铺晓斌琴行,广东省,珠海市,香洲区,13823066818,购物;商铺
中大琴行,广东省珠海市香洲区明园路58号私享家公寓1楼,广东省,珠海市,香洲区,18675639234,购物;商铺
龙门乐器,广东省珠海市香洲区金峰西路金鼎科技工业园唐家湾镇金峰西路23号,广东省,珠海市,香洲区,(0756)3628333,购物;商铺
粤音琴行(夏湾店),港昌路418号（海荣新村巴士站）,广东省,珠海市,香洲区,(0756)8534611,购物;商铺
百灵鸟琴行(康桥分店),广东省珠海市金湾区虹阳路新世界康桥3栋109室,广东省,珠海市,金湾区,13727020399,购物;商铺
名爵琴行(粤华店),金凤路18号北京师范大学珠海校区粤华苑16栋4556室,广东省,珠海市,香洲区,13536574556,购物;商铺
雅马哈钢琴专卖店(新海贝琴行华发商都店),珠海市香洲区南屏镇华发社区珠海大道8号南屏华发商都F3,广东省,珠海市,香洲区,0756-8332281,购物;商铺
田原琴行,人民东路银桦新村336号,广东省,珠海市,香洲区,(0756)2110585,购物;商铺
睿音琴行,广东省珠海市斗门区连兴路华策岭峰国际,广东省,珠海市,斗门区,13697748796,购物;商铺
达韵琴行,广东省珠海市香洲区翠景路382号,广东省,珠海市,香洲区,(0756)2605233,购物;商铺
珠海西二琴行,紫荆路303号水晶堡商业广场2楼,广东省,珠海市,香洲区,(0756)8111777,购物;商铺
笑笑琴行,珠海市金湾区南涌路嘉富园,广东省,珠海市,金湾区,,购物;商铺
脉之博琴行(珠海香洲店),广东省珠海市香洲区人民西路120号,广东省,珠海市,香洲区,,购物;商铺
雅韵琴行(香华路店),香华路18号,广东省,珠海市,香洲区,18928063234,购物;商铺
朗译琴行(十二小分店),广东省珠海市香洲区昌业路4号,广东省,珠海市,香洲区,(0756)2616006,购物;商铺
越艺琴行,海祥园西南门东南60米,广东省,珠海市,香洲区,13410412560,购物;商铺
美韵琴行,珠海市金湾区美平二街时代港,广东省,珠海市,金湾区,13672770294,购物;商铺
佳音琴行(九洲大道中),广东省珠海市香洲区九洲大道中2106号,广东省,珠海市,香洲区,13798954310,购物;商铺
1号琴行,香洲区唐家湾镇港湾1号创意云端A栋一层4号商铺,广东省,珠海市,香洲区,13417780045,购物;商铺
升美琴行,广东省珠海市金湾区平沙二路378号,广东省,珠海市,金湾区,(0756)7755880,购物;商铺
派洛斯琴行,斗门区井岸江湾西二苑(江湾二路南),广东省,珠海市,斗门区,13709698914,购物;商铺
启雅琴行,广东省珠海市香洲区华平路129号20栋1楼,广东省,珠海市,香洲区,13417868585,购物;商铺
星汇琴行,珠海市斗门区环山中路珠海市斗门区实验小学南侧,广东省,珠海市,斗门区,13702777575,购物;商铺
艺点琴行,广东省珠海市香洲区前河北路荣泰河庭c1区281号,广东省,珠海市,香洲区,,购物;商铺
音可琴行,广东省珠海市香洲区世派街52号1F,广东省,珠海市,香洲区,13411396133,购物;商铺
越艺琴行,广东省珠海市香洲区南福路127号商铺,广东省,珠海市,香洲区,13825605867,购物;商铺
德国博兰斯勒钢琴(珠海)专卖店,珠海市香洲区市体育中心1号馆,广东省,珠海市,香洲区,(0756)2638868,购物;商铺
宝树艺术琴行,广东省珠海市斗门区白蕉镇白蕉南路金地格林泊乐北1门商铺14号,广东省,珠海市,斗门区,18926962467,购物;商铺
百声琴行(兴业路店),广东珠海市香洲区香悦路13号,广东省,珠海市,香洲区,"(0756)2268897,13427725609",购物;商铺
梦创琴社,广东省珠海市香洲区人民东路兴业路1号48栋1楼,广东省,珠海市,香洲区,,购物;商铺
佳艺琴行(香华店),广东省珠海市香洲区兴业路52号123栋1层37号铺,广东省,珠海市,香洲区,"(0756)2291608,18128118698",购物;商铺
横琴星平商行,珠海市香洲区宝华路横琴派出所西北侧约90米,广东省,珠海市,香洲区,13427742441,购物;商铺
博厚琴行,景乐路36号新华书店内一楼,广东省,珠海市,香洲区,(0756)3363010,购物;商铺
偏泽琴行,珠海市香洲区安富街家和城市风景,广东省,珠海市,香洲区,,购物;商铺
国艺艺琴行,广东省珠海市香洲区三台石路中珠上城266号,广东省,珠海市,香洲区,13702941736,购物;商铺
流声琴行(中兴南路店),广东省珠海市斗门区中兴南路278号,广东省,珠海市,斗门区,13570641967,购物;商铺
晓歌琴行(尚都时尚百货尚都商业广场店),乐园路宁海花园32号,广东省,珠海市,香洲区,13326648877,购物;商铺
威廉琴行,广东珠海市香洲区吉大区gi时代广场,广东省,珠海市,香洲区,,购物;商铺
雅马哈钢琴(珠海)旗舰体验中心,珠海市香洲区柠溪路101号鸿泰溪城一楼商铺,广东省,珠海市,香洲区,0756-2292368,购物;商铺
筝韵琴行(国子监分店),广东省珠海市香洲区如意街30号,广东省,珠海市,香洲区,13631264853,购物;商铺
传梦进口钢琴城,广东省珠海市香洲区永安三巷16号3栋503室,广东省,珠海市,香洲区,13527272936,购物;商铺
艺诺琴行,新香洲心华路168号银厦广场19栋2楼商铺,广东省,珠海市,香洲区,(0756)2633777,购物;商铺
荣耀琴行,广东省珠海市香洲区港昌路233号,广东省,珠海市,香洲区,13326684283,教育培训;培训机构
初音琴行(前山店),逸仙路228号3号商铺梅花豪庭,广东省,珠海市,香洲区,13631270410,购物;商铺
星愿琴行,广东省珠海市香洲区书香路14号,广东省,珠海市,香洲区,(0756)2268078,购物;商铺
梵音琴行,珠海市香洲区柠溪路福宁花园,广东省,珠海市,香洲区,"13553532534,13809238857",购物;商铺
海之艺琴行,凤山街道明珠北路145号棕榈假日回迁房11栋,广东省,珠海市,香洲区,"13543080387,15018307632",购物;商铺
艾克森钢琴乐器室,广东省珠海市香洲区景乐路16号第二工业大厦三楼,广东省,珠海市,香洲区,18023021287,购物;商铺
伟鸣琴行(人民东路店),广东省珠海市香洲区人民东路49号,广东省,珠海市,香洲区,13802677114,购物;商铺
童韵琴行,广东省珠海市香洲区狮山街道人民东路212号,广东省,珠海市,香洲区,13823062828,购物;商铺
成就未来钢琴中心,广东省珠海市香洲区兴业路97号3楼,广东省,珠海市,香洲区,13543061998,教育培训;培训机构
书法钢琴,珠海市香洲区广生路宝庆府大酒店东北侧约40米,广东省,珠海市,香洲区,,教育培训;培训机构
乐凸闽蛹爱和琴行(新香洲店),广东省珠海市香洲区人民西路738-20号,广东省,珠海市,香洲区,15018339058,购物;商铺
尚音琴行(五洲花城店),珠海市香洲区五洲世派街39号2楼(工商银行楼上),广东省,珠海市,香洲区,,购物;商铺
天宝琴行(凤凰北路店),广东省珠海市香洲区凤凰北路2099号安广世纪大厦301号,广东省,珠海市,香洲区,(0756)2111837,购物;商铺
798钢琴艺术培训中心(香洲店),广东省珠海市香洲区翠香街道香华路79号798,广东省,珠海市,香洲区,"13622960388,13802670388",教育培训;培训机构
花儿琴行,广东省珠海市斗门区西苑路78号2楼,广东省,珠海市,斗门区,13544917762,教育培训;培训机构
浅音钢琴工作室,广东省珠海市金湾区金城路316号商铺,广东省,珠海市,金湾区,13360778850,教育培训;培训机构
圆梦钢琴,广东省珠海市香洲区山房路16号西60米,广东省,珠海市,香洲区,13825635893,教育培训;培训机构
德国钢琴专卖,珠海市金湾区金岛路山海一品海岸花园,广东省,珠海市,金湾区,,购物;商铺
乐儿钢琴艺术培训中心,广东省珠海市香洲区柠溪路280号柠溪市场3层,广东省,珠海市,香洲区,(0756)2293022,教育培训;培训机构
钢琴工作室,珠海市香洲区兰埔路格力·香樟,广东省,珠海市,香洲区,,教育培训;培训机构
采乐筝琴体验店,广东省珠海市香洲区兴华路108号越兴工业大厦A座1楼,广东省,珠海市,香洲区,,购物;商铺
美国鲍德温钢琴专卖,广东省珠海市香洲区香华路74号,广东省,珠海市,香洲区,13802670388,购物;商铺
刘诗昆钢琴艺术中心(柠溪总店),广东省珠海市香洲区柠溪路284号柠溪文化广场3楼3A08（肯德基后门电梯上3楼）,广东省,珠海市,香洲区,"(0756)2295523,18666991321",教育培训;培训机构
钢琴启蒙班,珠海市香洲区翠仙路中珠上城-1期,广东省,珠海市,香洲区,,教育培训;培训机构
东洋阿波罗钢琴,广东省珠海市香洲区人民东路二巷小区,广东省,珠海市,香洲区,,购物;商铺
顺兴商行(横琴店),宝中路68号,广东省,珠海市,香洲区,13642710858,购物;商铺
德国卡米洛钢琴专卖店,珠海市香洲区创业路金域华府,广东省,珠海市,香洲区,,购物;商铺
博大青少年艺术培训中心(拱北店),广东省珠海市香洲区粤海中路2610号(银石雅园南大门),广东省,珠海市,香洲区,(0756)8607083,教育培训;培训机构
梦响音乐教育,广东省珠海市香洲区新香洲五洲花城二期书香路5号,广东省,珠海市,香洲区,,教育培训;培训机构
风雅乐器中心,珠海市斗门区红旗一巷商业幼儿园东侧约90米,广东省,珠海市,斗门区,,购物;商铺
红舞星艺术培训,广东省珠海市金湾区琴石路636号(原三灶汽车客运站二楼),广东省,珠海市,金湾区,15916331088,教育培训;培训机构
