name,address,province,city,area,telephone,tag
风竹美术,广东省珠海市香洲区前山镇白石路2166号兰埔花园7栋,广东省,珠海市,香洲区,13417946882,教育培训;培训机构
无界美术馆,广东省珠海市香洲区情侣北路格力海岸滨海商业1栋2楼无界书店楼下,广东省,珠海市,香洲区,(0756)3616930,旅游景点;其他
康康城堡美术(柠溪校区),广东省珠海市香洲区柠溪路68号嘉宝华药房2层,广东省,珠海市,香洲区,(0756)2284098,教育培训;培训机构
小仓鼠美术教育(翠华新村总校),广东省珠海市香洲区昌业路103号,广东省,珠海市,香洲区,(0756)2638385,教育培训;培训机构
夏加儿美术教育(基地珠海校区),广东省珠海市香洲区上华路2号中珠九悦商业中心2楼2015室,广东省,珠海市,香洲区,,教育培训;培训机构
伯尼潜能美术教育(珠海店),广东省珠海市香洲区创业路96号桂香苑,广东省,珠海市,香洲区,13302533020,教育培训;培训机构
古元美术馆,广东省珠海市香洲区梅华东路388号,广东省,珠海市,香洲区,(0756)3818068,旅游景点;其他
高地美术(太和中心校区),广东省珠海市香洲区柠溪路338号太和商务中心附楼4楼,广东省,珠海市,香洲区,"(0756)2180168,18926916358",教育培训;培训机构
古元美术馆,13路;16路;17A路;17路;55路;B6路;勤业专线01,广东省,珠海市,香洲区,,交通设施;公交车站
高地美术(凤凰北校区),广东省珠海市香洲区凤凰北路1098,广东省,珠海市,香洲区,(0756)2126168,教育培训;培训机构
高地美术,广东省珠海市斗门区金坑中路19号,广东省,珠海市,斗门区,,教育培训;培训机构
高地美术(新香洲校区),广东省珠海市香洲区三台石路221号中珠上城1楼商铺,广东省,珠海市,香洲区,"(0756)8876168,13318969109",教育培训;培训机构
小莫奈少儿美术教育机构,广东省珠海市香洲区银桦路101号,广东省,珠海市,香洲区,,教育培训;培训机构
风竹美术-东门,广东省珠海市香洲区九洲大道西北,广东省,珠海市,香洲区,,出入口;门
小仓鼠美术教育(中珠校区),广东省珠海市香洲区三台石路243号中珠上城,广东省,珠海市,香洲区,13543080025,教育培训;培训机构
康康城堡美术(华府校区),广东省珠海市香洲区敬业路186号,广东省,珠海市,香洲区,(0756)2618796,教育培训;培训机构
三象美术(新香洲校区),广东省珠海市香洲区人民西路738号城市风景2楼商铺,广东省,珠海市,香洲区,13326655873,教育培训;培训机构
美术书法,珠海市香洲区扣扉路TOD万科城,广东省,珠海市,香洲区,,教育培训;培训机构
Limonet美术会馆,珠海市香洲区银桦路101号,广东省,珠海市,香洲区,15812621001,教育培训;培训机构
三维创意美术培训机构,健民路113号B2,广东省,珠海市,香洲区,18578297766,教育培训;培训机构
高地美术(南屏校区),广东省珠海市香洲区仙桥路南湾国际商业街2楼243~244号(禧贵人旁),广东省,珠海市,香洲区,13318969109,教育培训;培训机构
壹梵创意美术,广东省珠海市香洲区翠前北二街15号,广东省,珠海市,香洲区,15916219903,教育培训;培训机构
风竹美术-西门,广东省珠海市香洲区兰埔花园西门(白石路东),广东省,珠海市,香洲区,,出入口;门
小仓鼠美术教育(香山校区),广东省珠海市香洲区书香路15-17号,广东省,珠海市,香洲区,13672702561,教育培训;培训机构
高斯教育美术培训,香洲区人民东路338号,广东省,珠海市,香洲区,13543880185,教育培训;培训机构
墨渔田美术教育,广东省珠海市香洲区桂花北路158号兰桂综合楼二楼,广东省,珠海市,香洲区,15626987858,教育培训;培训机构
正美术教育机构,广东省珠海市斗门区井岸镇井湾路113号三友智创谷B栋2层,广东省,珠海市,斗门区,"15818975336,18928028321",教育培训;培训机构
一线美术教育,广东省珠海市香洲区翠前北路37号6栋3单元二楼,广东省,珠海市,香洲区,(0756)6857885,教育培训;培训机构
绘有趣美术,广东省珠海市斗门区尖峰前路330号海创家具2层,广东省,珠海市,斗门区,15019933665,教育培训;培训机构
国君美术(珠海分校),广东省珠海市香洲区文园路13号,广东省,珠海市,香洲区,13750073078,教育培训;培训机构
优U日记儿童美术中心,广东省珠海市香洲区东堡路12号,广东省,珠海市,香洲区,,教育培训;培训机构
知画美术,珠海市香洲区梅花路梅花豪庭,广东省,珠海市,香洲区,,教育培训;培训机构
康康城堡美术(凤凰北校区),广东省珠海市香洲区凤凰北如意街34号鹏程教育基地1号铺,广东省,珠海市,香洲区,"(0756)2180648,(0756)2284098",教育培训;培训机构
叶子美术教室,九州大道西兰埔花园23栋一楼,广东省,珠海市,香洲区,15015939334,教育培训;培训机构
斯玛特儿童美术,珠海市香洲区香华路嘉丰花园,广东省,珠海市,香洲区,,教育培训;培训机构
小央美儿童美术(珠海校区),广东省珠海市香洲区金发路96号,广东省,珠海市,香洲区,15323995836,教育培训;培训机构
斯玛特儿童美术中心(珠海高新校区),广东省珠海市香洲区情侣北路滨海商业街12栋104号,广东省,珠海市,香洲区,(0756)3312520,教育培训;培训机构
风竹美术-永益楼,珠海市香洲区白石路风竹美术,广东省,珠海市,香洲区,,教育培训;培训机构
前山市民艺术中心,广东省珠海市香洲区逸仙路324号,广东省,珠海市,香洲区,(0756)8603171,教育培训;培训机构
仓晟美术教育,珠海市香洲区兰埔路兰桂综合楼,广东省,珠海市,香洲区,,教育培训;培训机构
金湾区云天美术馆,广东省珠海市金湾区大雅路112~113号101铺,广东省,珠海市,金湾区,15015970118,旅游景点;其他
大榕树美术教育,广东省珠海市香洲区天邦大厦4楼404,广东省,珠海市,香洲区,,教育培训;培训机构
金海岸文化艺术中心-美术馆,广东省珠海市金湾区三灶金岛路69号金海岸文化艺术中心,广东省,珠海市,金湾区,,文化传媒
大千画世界美术训练营,人民西路833号7019,广东省,珠海市,香洲区,13928095125,教育培训;培训机构
高地美术,广东省珠海市金湾区三灶镇虹阳路183号,广东省,珠海市,金湾区,18928092768,教育培训;培训机构
绘屿美术工作室,广东省珠海市香洲区唐家湾镇前环路16号,广东省,珠海市,香洲区,15018866897,教育培训;培训机构
左印国际美术教育(珠海校区),广东省珠海市香洲区春晖路105号春晖市场三楼306,广东省,珠海市,香洲区,13075656920,教育培训;培训机构
珠海特区画院美术馆,广东省珠海市香洲区九洲大道东1115号,广东省,珠海市,香洲区,(0756)3291732,旅游景点;其他
珠海市工艺美术学会,珠海市斗门区同福路鸿福楼东北侧,广东省,珠海市,斗门区,,政府机构;社会团体
成功画室美术教育总部校区,广东省珠海市香洲区心华路147号广富市场3楼,广东省,珠海市,香洲区,"13726240881,15217859122",教育培训;培训机构
心境美术教育,"珠海市香洲区香溪路80号207,柠溪青竹花园",广东省,珠海市,香洲区,18578203639,教育培训;培训机构
风竹美术-北门,广东省珠海市香洲区兰埔花园北门(兰埔路南),广东省,珠海市,香洲区,,出入口;门
卡乐印象美术培训中心,广东省珠海市金湾区永泰路蓝精灵母婴店2楼,广东省,珠海市,金湾区,13229889698,教育培训;培训机构
北艺画院,广东省珠海市香洲区心华路194号,广东省,珠海市,香洲区,(0756)2638350,教育培训;培训机构
泰锋美术馆,广东省珠海市香洲区明珠南路2021号,广东省,珠海市,香洲区,(0756)8289555,旅游景点;其他
美术培训,珠海市香洲区鸿鹄街与翠前北二街交叉路口往东北约200米(金鸿·利嘉阁),广东省,珠海市,香洲区,,教育培训;培训机构
糖仁美术,珠海市香洲区港湾大道华盛豪园西北侧约70米,广东省,珠海市,香洲区,13536588821,教育培训;培训机构
精彩画艺美术馆,广东省珠海市香洲区海燕路5号鑫北花园商铺3层,广东省,珠海市,香洲区,15818977588,教育培训;培训机构
香山美术馆,广东省珠海市香洲区翠湖高尔夫球会,广东省,珠海市,香洲区,,旅游景点;其他
中国美术学院美术考级教学点,珠海市香洲区康泰街宝地康泰花园-A区,广东省,珠海市,香洲区,15089160135,教育培训;培训机构
学艺社培训中心,广东省珠海市香洲区东门大街1号2楼,广东省,珠海市,香洲区,,教育培训;培训机构
赏心堂美术馆,广东省珠海市香洲区九洲大道中2172号荔苑5栋1层,广东省,珠海市,香洲区,,旅游景点;其他
绘艺美术馆,广东省珠海市金湾区文华路295号,广东省,珠海市,金湾区,,教育培训;培训机构
吉林大学珠海学院-美术与设计学院,紫荆路与丹桂路交叉口东南约80米,广东省,珠海市,金湾区,,教育培训;培训机构
风竹美术停车场-出入口,广东省珠海市香洲区兰埔路69号附近,广东省,珠海市,香洲区,,出入口;停车场出入口
大香山美术馆-东门,珠海市香洲区翠景路110号附近,广东省,珠海市,香洲区,,出入口;门
赏心堂美术馆-东南门,珠海市香洲区龙兴街7单元附近,广东省,珠海市,香洲区,,出入口;门
珠海市斗门区美术书法协会,珠海市斗门区港霞西路49号,广东省,珠海市,斗门区,,政府机构;社会团体
古元美术馆,13路;16路;17A路;17路;B5路;勤业专线01,广东省,珠海市,香洲区,,交通设施;公交车站
珠海市高昂工艺美术品有限公司,广东省珠海市香洲区景园路5号高昂商务中心5楼508b,广东省,珠海市,香洲区,,公司企业
贝思艺术培训中心,广东省珠海市香洲区北山路22号铺（华发商都对面）,广东省,珠海市,香洲区,(0756)8301038,教育培训;培训机构
叶子画室,广东省珠海市金湾区金铭东路248号,广东省,珠海市,金湾区,15992680066,教育培训;培训机构
朵朵韵美术馆,广东省珠海市斗门区商业街锦绣荣城5区13栋115号,广东省,珠海市,斗门区,,旅游景点;其他
北京师范大学未来设计学院美术馆,珠海市香洲区会下线北京师范大学(珠海校区),广东省,珠海市,香洲区,,旅游景点;其他
双龙山艺术区美术馆,广东省珠海市香洲区旅游路2086号,广东省,珠海市,香洲区,,旅游景点;其他
卡乐优教,南翔路218号正光苑04号铺,广东省,珠海市,金湾区,(0756)7239109,生活服务;其他
美术照相馆,广东省珠海市斗门区工业大道117号,广东省,珠海市,斗门区,13318979713,生活服务;照相馆
中建三局美术馆项目管理部,广东省珠海市香洲区童心路18号1幢,广东省,珠海市,香洲区,,政府机构;行政单位
风竹美术-停车场,珠海市香洲区兰埔路金域廊院南侧约50米,广东省,珠海市,香洲区,,交通设施;停车场
