name,address,province,city,area,telephone,tag
广东美术馆,广东省广州市越秀区烟雨路38号,广东省,广州市,越秀区,(020)87351468,文化传媒;美术馆
广州美术学院(大学城校区)-美术馆,广东省广州市番禺区外环西路168号,广东省,广州市,番禺区,,旅游景点;其他
广州美术学院(昌岗校区),海珠区昌岗东路257号(近地铁昌岗站),广东省,广州市,海珠区,"(020)84017565,020-39362002,020-39362004",教育培训;高等院校
恒艺美术,广东省广州市海珠区江南大道中334号101铺（昌岗地铁C2出口附近）,广东省,广州市,海珠区,15999927551,教育培训;培训机构
一韩美术教育,广东省广州市南沙区东沥大道3号,广东省,广州市,南沙区,,教育培训;培训机构
莫顿美术,广东省广州市花都区迎宾大道5号怡翠苑东门,广东省,广州市,花都区,,教育培训;培训机构
麓桐美术,广东省广州市越秀区建设大马路西八街5号101房,广东省,广州市,越秀区,13928852075,教育培训;培训机构
三象美术(东怡校区),广州市番禺区广华南路东瀚园商务大厦2楼（交通银行楼上）,广东省,广州市,番禺区,,教育培训;培训机构
艺森美术,广东省广州市越秀区惠吉东路37号首层,广东省,广州市,越秀区,13826149272,教育培训;培训机构
卓雅美术,广东省广州市番禺区汉溪大道南国奥园小资天堂3座2楼12号,广东省,广州市,番禺区,"13622877980,18520165583",教育培训;培训机构
院派儿童美术(总部),广东省广州市番禺区华工南路6号星汇文华一期华润万家2楼,广东省,广州市,番禺区,15088063450,教育培训;培训机构
广州美术学院-南门,广州市海珠区昌岗东路257号,广东省,广州市,海珠区,,出入口;门
篙迪美术,广州市南沙区兴发二街玫瑰花园东南侧约80米,广东省,广州市,南沙区,"13590809885,15018731981",教育培训;培训机构
木棉美术,广东省广州市番禺区沿沙东路40号鑫三鼎商务中心b栋3楼,广东省,广州市,番禺区,"13202018208,18529276884",教育培训;培训机构
广州市海珠工艺美术职业学校,广东省广州市海珠区江南中街道江南大道中132号,广东省,广州市,海珠区,(020)84476927,教育培训;高等院校
广州市美术有限公司,广东省广州市天河区水荫路四横路46号,广东省,广州市,天河区,(020)87047229,公司企业;公司
文希美术,广东省广州市番禺区草河新一路东一巷6号,广东省,广州市,番禺区,15917419471,教育培训;培训机构
唯艺美术,广州市南沙区蕉西路金茂湾-资本墅,广东省,广州市,南沙区,,教育培训;培训机构
致尚美术,广州市番禺区市莲路大龙村段豪景酒店(石基店)北侧约70米,广东省,广州市,番禺区,,教育培训;培训机构
华澜美术,广东省广州市花都区商业大道40号,广东省,广州市,花都区,13560384464,教育培训;培训机构
问号美术,广东省广州市白云区钟落潭五龙岗广五东路232号,广东省,广州市,白云区,13392136024,教育培训;培训机构
品艺美术,广东省广州市番禺区东怡新区二街31号,广东省,广州市,番禺区,17688408157,教育培训;培训机构
豆蒙美术,广东省广州市海珠区沁泉街10号保利花园108号,广东省,广州市,海珠区,18820559202,教育培训;培训机构
尚榕美术,广东省广州市天河区程介西大田基10号,广东省,广州市,天河区,15920155590,教育培训;培训机构
启明美术,广州市南沙区湖田六街阳光实验幼儿园(黄梅路)南侧约110米,广东省,广州市,南沙区,,教育培训;培训机构
美术中心,广东省广州市海珠区琶洲街道新港东路2519号工美港国际数字创新中心20号楼,广东省,广州市,海珠区,,教育培训;培训机构
青石美术,广东省广州市番禺区中华大道633号,广东省,广州市,番禺区,13418094618,教育培训;培训机构
宁蓝美术,广州市番禺区兴亚三路番禺区亚运城小学东侧约130米,广东省,广州市,番禺区,13631456219,教育培训;培训机构
花都区美术馆,广东省广州市花都区新华路52号,广东省,广州市,花都区,,旅游景点;其他
与亨美术馆,广东省广州市天河区思成路18号,广东省,广州市,天河区,,旅游景点;其他
书法美术,广州市番禺区海鸥公路海鸥岛,广东省,广州市,番禺区,,教育培训;培训机构
涂涂美术,广东省广州市番禺区康乐十二街18号,广东省,广州市,番禺区,15820115860,教育培训;培训机构
十里美术,广东省广州市番禺区德贤路22号,广东省,广州市,番禺区,,教育培训;培训机构
师承美术,广东省广州市番禺区谷围路3号,广东省,广州市,番禺区,13450282837,教育培训;培训机构
鹿尚美术,广东省广州市花都区永发路5-72号,广东省,广州市,花都区,15625091415,教育培训;培训机构
画虫美术,广东省广州市天河区龙口中路130号龙威商务大厦B栋二楼,广东省,广州市,天河区,,教育培训;培训机构
梵华美术,广东省广州市天河区悦景路33号金地天河公馆8栋114铺,广东省,广州市,天河区,15521293689,教育培训;培训机构
恩言美术,广东省广州市增城区翠湖路28号,广东省,广州市,增城区,13928893752,教育培训;培训机构
人艺美术,广东省广州市越秀区敬善后街4号,广东省,广州市,越秀区,,教育培训;培训机构
波普美术,广东省广州市白云区广州大道北1451号尊泰商务楼A区二楼A2-2室,广东省,广州市,白云区,,教育培训;培训机构
智盛美术,广东省广州市从化区康卫路24号,广东省,广州市,从化区,13926194322,教育培训;培训机构
山禾美术,广东省广州市番禺区康乐路9号,广东省,广州市,番禺区,"13265364949,18024176376",教育培训;培训机构
广州美术学院-美术馆,广东省广州市海珠区昌岗东路257号,广东省,广州市,海珠区,(020)84017023,旅游景点;其他
乐绘美术,广东省广州市白云区北中路1号强盛商务大厦黄石街道江夏强盛灿辉商务202室,广东省,广州市,白云区,13500024472,教育培训;培训机构
大新美术馆,广东省广州市花都区云峰路46号,广东省,广州市,花都区,(020)36966172,旅游景点;其他
博艺美术,广东省广州市从化区向阳路60号,广东省,广州市,从化区,4008893786,教育培训;培训机构
艺凡美术,广东省广州市番禺区南珠路146号,广东省,广州市,番禺区,,教育培训;培训机构
米鹿美术,广东省广州市花都区永发路16号106铺(汇通天地1楼),广东省,广州市,花都区,13602472624,教育培训;培训机构
蓝鲸美术,广东省广州市花都区花城路22号,广东省,广州市,花都区,,教育培训;培训机构
汇美术馆,广东省广州市白云区云霄路192号,广东省,广州市,白云区,,旅游景点;其他
树语美术,广州市白云区御金沙小区楼下商业街二楼201号树语美术,广东省,广州市,白云区,13538961693,教育培训;培训机构
名林美术,广东省广州市番禺区洛浦街道洛溪新城吉祥北园吉祥南街28栋12号,广东省,广州市,番禺区,"15217471752,15817116309",教育培训;培训机构
源美术馆,广东省广州市白云区大源北路4号纳佰源5g智慧金谷c3栋,广东省,广州市,白云区,18922324567,文化传媒
志坤美术,广东省广州市番禺区聚宝路99号,广东省,广州市,番禺区,13631304481,教育培训;培训机构
美术美育,广州市黄埔区开萝大道萝岗敏捷广场,广东省,广州市,黄埔区,,教育培训;培训机构
艺心美术,广州市增城区环村路麻车学校西北侧约50米,广东省,广州市,增城区,,教育培训;培训机构
南岸至尚,广东省广州市荔湾区黄沙大道15号,广东省,广州市,荔湾区,(020)81535882,文化传媒;美术馆
源美术馆,广东省广州市从化区X287,广东省,广州市,从化区,,旅游景点;其他
涂涂美术,广州市海珠区工业大道第三金碧花园81、82栋001铺(第九十七中学往东50米),广东省,广州市,海珠区,18818908713,教育培训;培训机构
涂图美术,广东省广州市花都区花东镇金港南一路8号4区105,广东省,广州市,花都区,18826138160,教育培训;培训机构
尼凡美术,广东省广州市荔湾区永安一巷4-2号,广东省,广州市,荔湾区,,教育培训;培训机构
一艺美术,广东省广州市番禺区长江路345号,广东省,广州市,番禺区,,教育培训;培训机构
尼凡美术,广东省广州市荔湾区多宝街道黄沙谊园b管3066a,广东省,广州市,荔湾区,,教育培训;培训机构
蒙德美术,广东省广州市番禺区市头大道南路30,广东省,广州市,番禺区,19128703710,教育培训;培训机构
创艺美术,广东省广州市南沙区民安路20号,广东省,广州市,南沙区,18924217453,教育培训;培训机构
云美术馆,广东省广州市白云区白云大道北349号华业云谷A幢六楼,广东省,广州市,白云区,,旅游景点;其他
南湖美术馆,广东省广州市白云区南湖中路8号,广东省,广州市,白云区,,旅游景点;其他
杜尚美术,广东省广州市番禺区大龙街道金海岸大道10号叮叮学府5楼,广东省,广州市,番禺区,,教育培训;培训机构
小象美术,广东省广州市南沙区丰泽东路31号,广东省,广州市,南沙区,,教育培训;培训机构
雅熙美术,广东广州市花都区天贵北路感恩苑10号铺,广东省,广州市,花都区,13538769683,教育培训;培训机构
广州美术学院教学楼-A栋,广东省广州市番禺区大学城外环西路广州美术学院(大学城校区),广东省,广州市,番禺区,,房地产;内部楼栋
广东工艺美术产业园,广东省广州市海珠区新港东路2519号,广东省,广州市,海珠区,,公司企业;园区
广州美术学院-报告厅,广东省广州市番禺区大学城外环西路广州美术学院(大学城校区),广东省,广州市,番禺区,,文化传媒;其他
广州美术学院教学楼-J栋,广州市番禺区大学城外环西路168号广州美术学院,广东省,广州市,番禺区,,房地产;内部楼栋
广州市艺术中学,广东省广州市越秀区东风东路580号,广东省,广州市,越秀区,(020)83825151,教育培训;中学
思艺美术,广东广州市番禺区大龙街13号,广东省,广州市,番禺区,,教育培训;培训机构
葵心美术,广东省广州市黄埔区一纵路120号商铺,广东省,广州市,黄埔区,13416136963,教育培训;培训机构
层林美术,叠景路和丰大厦502室,广东省,广州市,海珠区,18122347801,教育培训;培训机构
星绘美术,白云区105国道解放庄桐喜酒店三楼305号,广东省,广州市,白云区,15902073170,教育培训;培训机构
画语美术,广东省广州市南沙区富佳南街11号富佳花园3号楼3号铺,广东省,广州市,南沙区,18100209376,教育培训;培训机构
康嵻美术,广东省广州市白云区汇桥二街32,广东省,广州市,白云区,,教育培训;培训机构
爱特美术,广州市白云区良田大中街仁和里(仁和街)东侧约80米,广东省,广州市,白云区,,教育培训;培训机构
向上美术,广东省广州市南沙区珠江街珠江东二路行人街2号,广东省,广州市,南沙区,13044218262,教育培训;培训机构
东壹美术,广东省广州市花都区新华街道新华镇宝华路36号心心大厦,广东省,广州市,花都区,18594088448,教育培训;培训机构
东派美术,广州市番禺区涌口街雅居乐剑桥汇,广东省,广州市,番禺区,13503070183,教育培训;培训机构
西东美术,广东省广州市增城区沙园中路11号博文艺术教育城二楼,广东省,广州市,增城区,,教育培训;培训机构
阳光美术,广州市增城区文政路派潭镇中心小学东南侧约70米,广东省,广州市,增城区,"15914329313,15920169845",教育培训;培训机构
广东省华艺美术馆,广东省广州市海珠区新港西路82号轻纺交易园b区2栋8层,广东省,广州市,海珠区,18011958928,旅游景点;其他
美术学院,B25路;大学城专线2路;番201路,广东省,广州市,番禺区,,交通设施;公交车站
新造美术馆,广东省广州市番禺区兴华路1号,广东省,广州市,番禺区,,旅游景点;其他
广东省文联艺术馆,广东省广州市越秀区人民北路871号,广东省,广州市,越秀区,(020)81202201,文化传媒;展览馆
美术公司,广东省广州市天河区林和西路1号广州国际贸易中心29楼,广东省,广州市,天河区,(020)34303888,公司企业
陶瓷美术,广州市番禺区德胜路东沙小区,广东省,广州市,番禺区,,购物
谊园办公美术用品交易中心,黄沙大道谊园文具批发市场2楼3121,广东省,广州市,荔湾区,(020)81173701,购物;商铺
广州美术学院(大学城校区)-生活区,大学城外环西路168号,广东省,广州市,番禺区,,房地产;住宅区
