name,address,province,city,area,telephone,tag
华南施坦威钢琴旗舰店(广州大剧院店),珠江西路1号,广东省,广州市,天河区,(020)38475700,购物;商铺
启明琴行,广东省广州市南沙区黄梅路湖田六街11号,广东省,广州市,南沙区,18319494321,购物;商铺
零元钢琴琴行,广东省广州市天河区天府路157号-1号,广东省,广州市,天河区,18520422979,购物;商铺
雅乐琴行(东成花苑店),广东省广州市天河区黄埔大道中181号东成花苑9栋1f,广东省,广州市,天河区,13060885295,购物;商铺
雅马哈钢琴(广州)旗舰体验中心,广州市天河区黄埔大道西120号高志大厦3楼302,广东省,广州市,天河区,020-83629289,购物;商铺
汇千乐器(北京路店),万福路335号（北京路地铁站B出口）,广东省,广州市,越秀区,(020)82331335,购物;商铺
通利琴行,广东省广州市越秀区越秀北路96号,广东省,广州市,越秀区,(020)34230800,购物;商铺
雾影都琴行,广州大道北同和路400号雾影都琴行,广东省,广州市,白云区,18620129961,购物;商铺
大立钢琴城(汇景楼店),广东省广州市增城区新塘镇荔新十三路62号,广东省,广州市,增城区,,购物;商铺
琶音琴行(贝岗总店),大学城广外西路贝岗村广外对面贝岗商业城四楼406（近广外，贝岗村委对面 ，一品天下旁）,广东省,广州市,番禺区,15002033728,购物;商铺
恒韵琴行,广东省广州市越秀区淘金路60号,广东省,广州市,越秀区,"020-83482730,19107642468",购物;商铺
乐鸣琴行(西门口店),光塔街道海珠中路203号（西门口地铁B出口）,广东省,广州市,越秀区,15915755038,购物;商铺
柏斯琴行(豪贤路店),豪贤路105号,广东省,广州市,越秀区,(020)83811388,购物;商铺
柏斯琴行(德兴路店),德兴路288号,广东省,广州市,番禺区,(020)84630938,购物;商铺
广歌琴行(广大店),广州大学城广大商中美食城C区三楼309（ABC量贩式KTV旁）,广东省,广州市,番禺区,"13535308288,13535350281",购物;商铺
宇声琴行(三元里店),群英街13号首层,广东省,广州市,白云区,(020)28130775,购物;商铺
乐声琴行,花园路二巷74-76号,广东省,广州市,从化区,18998422099,购物;商铺
悠悦琴行(江南西店),江南大道中穗花二巷8号002,广东省,广州市,海珠区,"13076788488,18819128133",购物;商铺
雅马哈钢琴专卖店(明天琴行),广州市番禺区市桥康乐路12号,广东省,广州市,番禺区,020-84875843,购物;商铺
钧乐琴行,兰花路28-33号,广东省,广州市,花都区,,购物;商铺
奥知琴行,中展里70号101室,广东省,广州市,荔湾区,13535593875,购物;商铺
雅马哈钢琴专卖店(箭丽琴行天河店),广州市天河区天河北路388-394号二楼,广东省,广州市,天河区,020-87569675,购物;商铺
九音琴行(美林湖畔校区),美林湖畔花园桃园南二街161号,广东省,广州市,天河区,"(020)32059841,18928744652",购物;商铺
广州快乐琴行有限公司(德国SEILER钢琴专卖),广东省广州市越秀区文德北路68号东方文德广场B1层,广东省,广州市,越秀区,,购物;商铺
卉悦琴行,广东省广州市白云区钟落潭村4队共和南街西二巷10号,广东省,广州市,白云区,18027149631,购物;商铺
维雅纳琴行,明月1巷6号-101室（近凯旋华美达酒店）,广东省,广州市,越秀区,(020)87398331,购物;商铺
广州艺馨琴行(北桥路店),北桥路78号,广东省,广州市,番禺区,(020)85821979,购物;商铺
心乐琴行(愉景店),广东省广州市海珠区新港西大江冲路25号世界图书出版社首层,广东省,广州市,海珠区,(020)34203938,教育培训;培训机构
灿音琴行(黄边校区),黄边北路610号,广东省,广州市,白云区,18825100812,购物;商铺
吾器酷(体育中心店),天河北街7-7号(林和西地铁站B口步行470米),广东省,广州市,天河区,13380041959,购物;商铺
佳音琴行(番禺店),广东省广州市番禺区南城路雅居乐城南源着747号,广东省,广州市,番禺区,13826434775,购物;商铺
卓林琴行,南安大街20号101房,广东省,广州市,荔湾区,18664687248,购物;商铺
乐之星艺术·琴行·钢琴·绘画·书法(同德围店),明德街51、55号首层自编一号铺,广东省,广州市,白云区,15975529256,购物;商铺
星之海琴行(花都店),广东省广州市花都区叶榕街6-84号,广东省,广州市,花都区,15118876084,购物;商铺
酷比乐器,绿荫路3号104(东湖地铁站B2口步行350米),广东省,广州市,越秀区,,购物;商铺
郭老师的钢琴课琴行,广东省广州市天河区东方一路186号,广东省,广州市,天河区,13922398831,购物;商铺
指音琴行(广百百货从化店),广东省广州市从化区东成路68号广百百货二楼N2003A号,广东省,广州市,从化区,13711419314,购物;商铺
乐弹琴行,丹桂园大街一巷9号首层,广东省,广州市,番禺区,13418182902,购物;商铺
玫瑰园琴行,广东省广州市海珠区江南西路青竹大街29号玫瑰会所303室,广东省,广州市,海珠区,020-34277106,购物;商铺
怡雅琴行(海幢小区店),广州市海珠区南华中路同福新街2号1楼,广东省,广州市,海珠区,,购物;商铺
恩典琴行,广东省广州市黄埔区青年路298号(开发区第一小学对面),广东省,广州市,黄埔区,13632352748,购物;商铺
东林琴行(中海·蓝湾店),洛浦街道中海蓝湾383商铺,广东省,广州市,番禺区,13710125160,购物;商铺
博雅琴行(荔星大道店),广东省广州市增城区荔星大道8-224号,广东省,广州市,增城区,(020)82645551,购物;商铺
艺星琴行(五洲店),天贵路50号五洲幼儿园旁,广东省,广州市,花都区,13143773555,购物;商铺
阳光琴行(金燕艺术中心),广州市天河区粤垦路金燕生活区燕翔楼202(近农工商学院),广东省,广州市,天河区,18027224657,购物;商铺
越韵琴行,广东省广州市荔湾区南岸路44号星之光文体市场c馆,广东省,广州市,荔湾区,(020)81811235,购物;商铺
广州蕾蕾琴行,广州市白云区张村大街张村育才幼儿园北侧约80米,广东省,广州市,白云区,18826426849,购物;商铺
桐声琴行,广州市花都区新华莲塘二村新区一巷宾菲杨泳场南侧约180米,广东省,广州市,花都区,13631301869,购物;商铺
广州哆音连锁琴行(北京路店),广东省广州市越秀区文德南路122号4楼404室,广东省,广州市,越秀区,13633366644,购物;商铺
跳乐琴行(番禺富怡店),石基镇大龙街富怡路罗家村段23号自编5号商铺,广东省,广州市,番禺区,18011912697,购物;商铺
广州泰源乐器,广东省广州市花都区菊花石大道永乐工业园内,广东省,广州市,花都区,(020)87414955,购物;商铺
妙茵琴行,广州市番禺区如意路奥园大厦,广东省,广州市,番禺区,13600029203,购物;商铺
慧艺术琴行,棠德花苑棠德南东二街16-1号商铺慧艺术琴行,广东省,广州市,天河区,18028666207,购物;商铺
唯弦汇琴行,翠景路洋角街72号2-3楼,广东省,广州市,增城区,15915879679,购物;商铺
乐苗琴行,广东省广州市番禺区龙源路64号,广东省,广州市,番禺区,18620869383,购物;商铺
雅律琴行,广州市白云区中成路广州白天鹅花园-东区,广东省,广州市,白云区,13288450213,购物;商铺
名琴阁古琴琴馆(广州古琴专卖),体育西路5号骏汇大厦南座首层8号铺,广东省,广州市,天河区,18520136913,购物;商铺
YAMAHA童心音乐,淘金街40号101,广东省,广州市,越秀区,"(020)83500696,13560387211",购物;商铺
观乐琴行,广州市从化区城中路城南商业大楼,广东省,广州市,从化区,,购物;商铺
盈雅琴行,广州市花都区茶碑路花冠集西北侧约40米,广东省,广州市,花都区,13922218649,购物;商铺
英曼艺术成人钢琴(天河区华景店),广东省广州市天河区华景路104号华景福门阁C座3楼312室,广东省,广州市,天河区,(020)38209877,教育培训;培训机构
简摇琴行(建设路店),从化区建设路151号,广东省,广州市,从化区,18926162558,购物;商铺
贤彩琴行,广州市天河区岑村北街蓝天雅苑东南侧约70米,广东省,广州市,天河区,"15013032684,15800041531",购物;商铺
碎乐琴行,金穗路1号邦华环球广场20层A137室,广东省,广州市,天河区,,购物;商铺
First成人钢琴(珠江新城旗舰店),广州市天河区珠江西路高德置地夏广场D座505室,广东省,广州市,天河区,,购物;商铺
悦音琴行(豪岗大道店),广东省广州市南沙区豪岗大道103号铺,广东省,广州市,南沙区,13560087166,购物;商铺
成乐琴行,广东省广州市海珠区江南中街道江南西路81号江南商务,广东省,广州市,海珠区,,购物;商铺
赛乐尔钢琴·艺术展厅,环城北路753号,广东省,广州市,天河区,,教育培训;培训机构
御龙音域乐器,广东省广州市海珠区前进路前桂街44-46号,广东省,广州市,海珠区,(020)34486608,购物;商铺
蓓蕾琴行(东升路店),广东省广州市南沙区东升路248号,广东省,广州市,南沙区,13392643719,购物;商铺
星韵轩琴行(广船广钢店),广东省广州市荔湾区坑口新村一巷47号,广东省,广州市,荔湾区,,购物;商铺
曹氏提琴(广州直营店),番禺大道北346号万利商业园B座403室,广东省,广州市,番禺区,18127810723,购物;商铺
筝心琴行(沙湾大道店),广东省广州市番禺区沙湾大道89号,广东省,广州市,番禺区,13922178483,购物;商铺
十年琴行,广东省广州市番禺区南城路587号,广东省,广州市,番禺区,18826468688,购物;商铺
晟乐琴行(滨海新城店),滨海新城慧富大街9栋商铺109-110号,广东省,广州市,南沙区,13066318618,购物;商铺
乐动琴行,广东省广州市南沙区中环路26号,广东省,广州市,南沙区,13415404962,购物;商铺
广州市九律琴行有限公司,广州市荔湾区杏霖街7号205房,广东省,广州市,荔湾区,,购物;商铺
童声琴行,广州市海珠区金碧四街金碧花园,广东省,广州市,海珠区,13570249105,购物;商铺
哈卡钢琴城,广东省广州市番禺区兴业西路2号,广东省,广州市,番禺区,,购物;商铺
广雅琴行,广东省广州市白云区祥景路98号,广东省,广州市,白云区,13416537675,购物;商铺
钢琴之家,天寿路朝晖商业中心2楼225-227号（近华阳小学、嘉怡园幼儿园、百佳商场）,广东省,广州市,天河区,15602321277,购物;商铺
禾乐钢琴,广州市番禺区市良路720号,广东省,广州市,番禺区,"15710887813,18922390817",教育培训;培训机构
远航提琴,广东省广州市番禺区105国道谢村路段28号,广东省,广州市,番禺区,13660506825,购物;商铺
美音科技,解放中路393号,广东省,广州市,越秀区,(020)83772515,购物;商铺
盖亚音乐中心,茶滘路4号2楼,广东省,广州市,荔湾区,(020)81559670,购物;商铺
卓雅钢琴,广州市花都区天贵北路广州融创文旅城雪域华庭-C1区,广东省,广州市,花都区,,教育培训;培训机构
德鸿钢琴经营中心,广东省广州市增城区增江街道东桥东路52号,广东省,广州市,增城区,13411195376,购物;商铺
乐享钢琴,广东省广州市黄埔区丰乐南路黄埔花园108号,广东省,广州市,黄埔区,,教育培训;培训机构
砺致乐器,广州市增城区荔城街道夏街大道9号之三,广东省,广州市,增城区,13610011101,购物;商铺
乐器零售批发,广州市天河区车陂北街广氮新村西侧,广东省,广州市,天河区,,购物;商铺
音希钢琴,广东省广州市天河区天寿路8号朝晖苑D2铺,广东省,广州市,天河区,18589222178,教育培训;培训机构
